IRIDIUM 119             
1 42959U 17061E   24145.55690053  .00000552  00000+0  19005-3 0  9992
2 42959  86.3964 340.1982 0002007  84.8350 275.3075 14.34215819346797
IRIDIUM 107             
1 42960U 17061F   24145.50616265  .00000548  00000+0  18871-3 0  9997
2 42960  86.3963 340.2362 0001883  86.8040 273.3371 14.34227265346795
IRIDIUM 132             
1 42961U 17061G   24145.51251371  .00000540  00000+0  18557-3 0  9995
2 42961  86.3964 340.2185 0001764  91.0429 269.0969 14.34225426346799
IRIDIUM 136             
1 42962U 17061H   24145.61399927  .00000488  00000+0  16733-3 0  9992
2 42962  86.3964 340.1795 0002158  78.6846 281.4592 14.34219555346828
IRIDIUM 139             
1 42963U 17061J   24145.62032239  .00000499  00000+0  17129-3 0  9996
2 42963  86.3966 340.2260 0001802  91.7790 268.3612 14.34214393346831
IRIDIUM 125             
1 42964U 17061K   24145.81695026  .00000284  00000+0  94243-4 0  9992
2 42964  86.3967 340.1913 0001874  78.5471 281.5935 14.34215315346879
IRIDIUM 135             
1 43070U 17083A   24145.86087499  .00000631  00000+0  21819-3 0  9993
2 43070  86.3946 276.8201 0002405 100.3823 259.7643 14.34216434336174
IRIDIUM 138             
1 43071U 17083B   24145.46761471  .00000581  00000+0  20049-3 0  9997
2 43071  86.3937 276.7050 0002110  88.6778 271.4659 14.34210894336101
